[{"OBJECT_NAME":"STARLINK-35373","OBJECT_ID":"2025-218B","EPOCH":"2026-03-09T13:52:45.133824","MEAN_MOTION":15.05649987,"ECCENTRICITY":0.0001465,"INCLINATION":97.6024,"RA_OF_ASC_NODE":292.8543,"ARG_OF_PERICENTER":87.2686,"MEAN_ANOMALY":272.8709,"EPHEMERIS_TYPE":0,"CLASSIFICATION_TYPE":"U","NORAD_CAT_ID":65792,"ELEMENT_SET_NO":999,"REV_AT_EPOCH":2495,"BSTAR":0.00037681,"MEAN_MOTION_DOT":5.38e-5,"MEAN_MOTION_DDOT":0},{"OBJECT_NAME":"FENGYUN 1C DEB","OBJECT_ID":"1999-025AWA","EPOCH":"2026-03-09T00:03:06.465024","MEAN_MOTION":14.61941395,"ECCENTRICITY":0.02164637,"INCLINATION":98.0221,"RA_OF_ASC_NODE":81.8458,"ARG_OF_PERICENTER":98.975,"MEAN_ANOMALY":263.602,"EPHEMERIS_TYPE":0,"CLASSIFICATION_TYPE":"U","NORAD_CAT_ID":30840,"ELEMENT_SET_NO":999,"REV_AT_EPOCH":74391,"BSTAR":0.00079130371,"MEAN_MOTION_DOT":5.495e-5,"MEAN_MOTION_DDOT":0}]
